FLOCK 4Q-11             
1 58273U 23174T   26032.86247350  .00019967  00000+0  45056-3 0  9994
2 58273  97.3965 118.8732 0005892 286.4471  73.6129 15.43241702124679
FLOCK 4Q-36             
1 58274U 23174U   26032.77967411  .00029305  00000+0  54379-3 0  9997
2 58274  97.3961 121.1313 0006083 275.4915  84.5642 15.48890606124817
FLOCK 4Q-12             
1 58275U 23174V   26032.78354336  .00028393  00000+0  53574-3 0  9997
2 58275  97.3948 121.0402 0005357 277.0778  82.9863 15.48421865124835
FLOCK 4Q-28             
1 58280U 23174AA  26032.81519791  .00023393  00000+0  47000-3 0  9997
2 58280  97.3974 120.3934 0005617 275.2865  84.7744 15.46637979124761
FLOCK 4Q-27             
1 58282U 23174AC  26032.93957678  .00026035  00000+0  52351-3 0  9993
2 58282  97.3915 120.0904 0005072 269.3206  90.7462 15.46596284124790
FLOCK 4Q-17             
1 58283U 23174AD  26032.77137857  .00046696  00000+0  66159-3 0  9991
2 58283  97.3911 122.8591 0004710 277.2719  82.8000 15.56334494124967
FLOCK 4Q-26             
1 58284U 23174AE  26032.76011267  .00026941  00000+0  51182-3 0  9998
2 58284  97.3967 121.2196 0005709 274.8686  85.1912 15.48232940124814
FLOCK 4Q-31             
1 58285U 23174AF  26032.77911386  .00030425  00000+0  58832-3 0  9992
2 58285  97.4010 120.8900 0006410 276.9031  83.1490 15.47694233124770
FLOCK 4Q-30             
1 58286U 23174AG  26032.77261941  .00029182  00000+0  56008-3 0  9999
2 58286  97.4011 121.0514 0006161 270.7409  89.3135 15.47920572124783
PELICAN-3001            
1 58296U 23174AS  26032.80410425  .00084576  00000+0  12254-2 0  9999
2 58296  97.4041 125.9748 0008652 236.7994 123.2431 15.55541269124965
FLOCK 4Q-25             
1 58303U 23174AZ  26032.93630964  .00041406  00000+0  66655-3 0  9994
2 58303  97.3931 121.8435 0004620 258.1521 101.9213 15.52848380124911
FLOCK 4Q-29             
1 58304U 23174BA  26032.77926753  .00026165  00000+0  51774-3 0  9992
2 58304  97.4002 120.7095 0006389 264.2168  95.8354 15.47056297124763
FLOCK 4Q-22             
1 58306U 23174BC  26032.79602295  .00030994  00000+0  56615-3 0  9992
2 58306  97.3905 120.8201 0005716 256.9292 103.1321 15.49332712124831
FLOCK 4Q-23             
1 58307U 23174BD  26032.81828702  .00045557  00000+0  75996-3 0  9993
2 58307  97.4016 122.1925 0006125 265.4935  94.5617 15.51823258124865
FLOCK 4Q-33             
1 58308U 23174BE  26032.76349507  .00029006  00000+0  54480-3 0  9995
2 58308  97.3928 120.7532 0005557 260.8662  99.1960 15.48548084124813
FLOCK 4Q-35             
1 58309U 23174BF  26032.79139889  .00027564  00000+0  53520-3 0  9990
2 58309  97.3967 120.9891 0006726 271.6714  88.3766 15.47591505124802
