[{"OBJECT_NAME":"FLOCK 4Q-11","OBJECT_ID":"2023-174T","EPOCH":"2026-02-01T20:41:57.710400","MEAN_MOTION":15.43241702,"ECCENTRICITY":0.00058929,"INCLINATION":97.3965,"RA_OF_ASC_NODE":118.8732,"ARG_OF_PERICENTER":286.4471,"MEAN_ANOMALY":73.6129,"EPHEMERIS_TYPE":0,"CLASSIFICATION_TYPE":"U","NORAD_CAT_ID":58273,"ELEMENT_SET_NO":999,"REV_AT_EPOCH":12467,"BSTAR":0.00045055587,"MEAN_MOTION_DOT":0.00019967,"MEAN_MOTION_DDOT":0},{"OBJECT_NAME":"FLOCK 4Q-36","OBJECT_ID":"2023-174U","EPOCH":"2026-02-01T18:42:43.843104","MEAN_MOTION":15.48890606,"ECCENTRICITY":0.00060833,"INCLINATION":97.3961,"RA_OF_ASC_NODE":121.1313,"ARG_OF_PERICENTER":275.4915,"MEAN_ANOMALY":84.5642,"EPHEMERIS_TYPE":0,"CLASSIFICATION_TYPE":"U","NORAD_CAT_ID":58274,"ELEMENT_SET_NO":999,"REV_AT_EPOCH":12481,"BSTAR":0.00054378729,"MEAN_MOTION_DOT":0.00029305,"MEAN_MOTION_DDOT":0},{"OBJECT_NAME":"FLOCK 4Q-12","OBJECT_ID":"2023-174V","EPOCH":"2026-02-01T18:48:18.146304","MEAN_MOTION":15.48421865,"ECCENTRICITY":0.00053572,"INCLINATION":97.3948,"RA_OF_ASC_NODE":121.0402,"ARG_OF_PERICENTER":277.0778,"MEAN_ANOMALY":82.9863,"EPHEMERIS_TYPE":0,"CLASSIFICATION_TYPE":"U","NORAD_CAT_ID":58275,"ELEMENT_SET_NO":999,"REV_AT_EPOCH":12483,"BSTAR":0.00053574129,"MEAN_MOTION_DOT":0.00028393,"MEAN_MOTION_DDOT":0},{"OBJECT_NAME":"FLOCK 4Q-28","OBJECT_ID":"2023-174AA","EPOCH":"2026-02-01T19:33:53.099424","MEAN_MOTION":15.46637979,"ECCENTRICITY":0.00056176,"INCLINATION":97.3974,"RA_OF_ASC_NODE":120.3934,"ARG_OF_PERICENTER":275.2865,"MEAN_ANOMALY":84.7744,"EPHEMERIS_TYPE":0,"CLASSIFICATION_TYPE":"U","NORAD_CAT_ID":58280,"ELEMENT_SET_NO":999,"REV_AT_EPOCH":12476,"BSTAR":0.00047000438,"MEAN_MOTION_DOT":0.00023393,"MEAN_MOTION_DDOT":0},{"OBJECT_NAME":"FLOCK 4Q-27","OBJECT_ID":"2023-174AC","EPOCH":"2026-02-01T22:32:59.433792","MEAN_MOTION":15.46596284,"ECCENTRICITY":0.00050727,"INCLINATION":97.3915,"RA_OF_ASC_NODE":120.0904,"ARG_OF_PERICENTER":269.3206,"MEAN_ANOMALY":90.7462,"EPHEMERIS_TYPE":0,"CLASSIFICATION_TYPE":"U","NORAD_CAT_ID":58282,"ELEMENT_SET_NO":999,"REV_AT_EPOCH":12479,"BSTAR":0.00052351235,"MEAN_MOTION_DOT":0.00026035,"MEAN_MOTION_DDOT":0},{"OBJECT_NAME":"FLOCK 4Q-17","OBJECT_ID":"2023-174AD","EPOCH":"2026-02-01T18:30:47.108448","MEAN_MOTION":15.56334494,"ECCENTRICITY":0.00047109,"INCLINATION":97.3911,"RA_OF_ASC_NODE":122.8591,"ARG_OF_PERICENTER":277.2719,"MEAN_ANOMALY":82.8,"EPHEMERIS_TYPE":0,"CLASSIFICATION_TYPE":"U","NORAD_CAT_ID":58283,"ELEMENT_SET_NO":999,"REV_AT_EPOCH":12496,"BSTAR":0.00066158683,"MEAN_MOTION_DOT":0.00046696,"MEAN_MOTION_DDOT":0},{"OBJECT_NAME":"FLOCK 4Q-26","OBJECT_ID":"2023-174AE","EPOCH":"2026-02-01T18:14:33.734688","MEAN_MOTION":15.4823294,"ECCENTRICITY":0.00057095,"INCLINATION":97.3967,"RA_OF_ASC_NODE":121.2196,"ARG_OF_PERICENTER":274.8686,"MEAN_ANOMALY":85.1912,"EPHEMERIS_TYPE":0,"CLASSIFICATION_TYPE":"U","NORAD_CAT_ID":58284,"ELEMENT_SET_NO":999,"REV_AT_EPOCH":12481,"BSTAR":0.00051181959,"MEAN_MOTION_DOT":0.00026941,"MEAN_MOTION_DDOT":0},{"OBJECT_NAME":"FLOCK 4Q-31","OBJECT_ID":"2023-174AF","EPOCH":"2026-02-01T18:41:55.437504","MEAN_MOTION":15.47694233,"ECCENTRICITY":0.000641,"INCLINATION":97.401,"RA_OF_ASC_NODE":120.89,"ARG_OF_PERICENTER":276.9031,"MEAN_ANOMALY":83.149,"EPHEMERIS_TYPE":0,"CLASSIFICATION_TYPE":"U","NORAD_CAT_ID":58285,"ELEMENT_SET_NO":999,"REV_AT_EPOCH":12477,"BSTAR":0.0005883247,"MEAN_MOTION_DOT":0.00030425,"MEAN_MOTION_DDOT":0},{"OBJECT_NAME":"FLOCK 4Q-30","OBJECT_ID":"2023-174AG","EPOCH":"2026-02-01T18:32:34.317024","MEAN_MOTION":15.47920572,"ECCENTRICITY":0.00061611,"INCLINATION":97.4011,"RA_OF_ASC_NODE":121.0514,"ARG_OF_PERICENTER":270.7409,"MEAN_ANOMALY":89.3135,"EPHEMERIS_TYPE":0,"CLASSIFICATION_TYPE":"U","NORAD_CAT_ID":58286,"ELEMENT_SET_NO":999,"REV_AT_EPOCH":12478,"BSTAR":0.00056008196,"MEAN_MOTION_DOT":0.00029182,"MEAN_MOTION_DDOT":0},{"OBJECT_NAME":"PELICAN-3001","OBJECT_ID":"2023-174AS","EPOCH":"2026-02-01T19:17:54.607200","MEAN_MOTION":15.55541269,"ECCENTRICITY":0.00086524,"INCLINATION":97.4041,"RA_OF_ASC_NODE":125.9748,"ARG_OF_PERICENTER":236.7994,"MEAN_ANOMALY":123.2431,"EPHEMERIS_TYPE":0,"CLASSIFICATION_TYPE":"U","NORAD_CAT_ID":58296,"ELEMENT_SET_NO":999,"REV_AT_EPOCH":12496,"BSTAR":0.0012254009,"MEAN_MOTION_DOT":0.00084576,"MEAN_MOTION_DDOT":0},{"OBJECT_NAME":"FLOCK 4Q-25","OBJECT_ID":"2023-174AZ","EPOCH":"2026-02-01T22:28:17.152896","MEAN_MOTION":15.5284838,"ECCENTRICITY":0.00046209,"INCLINATION":97.3931,"RA_OF_ASC_NODE":121.8435,"ARG_OF_PERICENTER":258.1521,"MEAN_ANOMALY":101.9213,"EPHEMERIS_TYPE":0,"CLASSIFICATION_TYPE":"U","NORAD_CAT_ID":58303,"ELEMENT_SET_NO":999,"REV_AT_EPOCH":12491,"BSTAR":0.00066654599,"MEAN_MOTION_DOT":0.00041406,"MEAN_MOTION_DDOT":0},{"OBJECT_NAME":"FLOCK 4Q-29","OBJECT_ID":"2023-174BA","EPOCH":"2026-02-01T18:42:08.714592","MEAN_MOTION":15.47056297,"ECCENTRICITY":0.00063896,"INCLINATION":97.4002,"RA_OF_ASC_NODE":120.7095,"ARG_OF_PERICENTER":264.2168,"MEAN_ANOMALY":95.8354,"EPHEMERIS_TYPE":0,"CLASSIFICATION_TYPE":"U","NORAD_CAT_ID":58304,"ELEMENT_SET_NO":999,"REV_AT_EPOCH":12476,"BSTAR":0.00051773526,"MEAN_MOTION_DOT":0.00026165,"MEAN_MOTION_DDOT":0},{"OBJECT_NAME":"FLOCK 4Q-22","OBJECT_ID":"2023-174BC","EPOCH":"2026-02-01T19:06:16.382880","MEAN_MOTION":15.49332712,"ECCENTRICITY":0.00057167,"INCLINATION":97.3905,"RA_OF_ASC_NODE":120.8201,"ARG_OF_PERICENTER":256.9292,"MEAN_ANOMALY":103.1321,"EPHEMERIS_TYPE":0,"CLASSIFICATION_TYPE":"U","NORAD_CAT_ID":58306,"ELEMENT_SET_NO":999,"REV_AT_EPOCH":12483,"BSTAR":0.00056615233,"MEAN_MOTION_DOT":0.00030994,"MEAN_MOTION_DDOT":0},{"OBJECT_NAME":"FLOCK 4Q-23","OBJECT_ID":"2023-174BD","EPOCH":"2026-02-01T19:38:19.998528","MEAN_MOTION":15.51823258,"ECCENTRICITY":0.00061259,"INCLINATION":97.4016,"RA_OF_ASC_NODE":122.1925,"ARG_OF_PERICENTER":265.4935,"MEAN_ANOMALY":94.5617,"EPHEMERIS_TYPE":0,"CLASSIFICATION_TYPE":"U","NORAD_CAT_ID":58307,"ELEMENT_SET_NO":999,"REV_AT_EPOCH":12486,"BSTAR":0.00075995508,"MEAN_MOTION_DOT":0.00045557,"MEAN_MOTION_DDOT":0},{"OBJECT_NAME":"FLOCK 4Q-33","OBJECT_ID":"2023-174BE","EPOCH":"2026-02-01T18:19:25.974048","MEAN_MOTION":15.48548084,"ECCENTRICITY":0.00055572,"INCLINATION":97.3928,"RA_OF_ASC_NODE":120.7532,"ARG_OF_PERICENTER":260.8662,"MEAN_ANOMALY":99.196,"EPHEMERIS_TYPE":0,"CLASSIFICATION_TYPE":"U","NORAD_CAT_ID":58308,"ELEMENT_SET_NO":999,"REV_AT_EPOCH":12481,"BSTAR":0.0005447981,"MEAN_MOTION_DOT":0.00029006,"MEAN_MOTION_DDOT":0},{"OBJECT_NAME":"FLOCK 4Q-35","OBJECT_ID":"2023-174BF","EPOCH":"2026-02-01T18:59:36.864096","MEAN_MOTION":15.47591505,"ECCENTRICITY":0.00067266,"INCLINATION":97.3967,"RA_OF_ASC_NODE":120.9891,"ARG_OF_PERICENTER":271.6714,"MEAN_ANOMALY":88.3766,"EPHEMERIS_TYPE":0,"CLASSIFICATION_TYPE":"U","NORAD_CAT_ID":58309,"ELEMENT_SET_NO":999,"REV_AT_EPOCH":12480,"BSTAR":0.00053520262,"MEAN_MOTION_DOT":0.00027564,"MEAN_MOTION_DDOT":0}]
